{
  "type": "FeatureCollection",
  "features": [
    {
      "type": "Feature",
      "properties": {
        "norad_id": 66352,
        "name": "STARLINK-35850",
        "group": "last-30-days",
        "lat": -49.33470150117583,
        "lon": -110.9342452570901,
        "alt_km": 414.152661686413,
        "timestamp": "2025-12-05T18:53:12.094962+00:00",
        "meta_object_name": "STARLINK-35850",
        "meta_object_id": "2025-254E",
        "meta_epoch": "2025-12-05T06:00:02.000160",
        "meta_mean_motion": 15.55250596,
        "meta_eccentricity": 0.00015294,
        "meta_inclination": 53.1594,
        "meta_ra_of_asc_node": 312.4282,
        "meta_arg_of_pericenter": 89.162,
        "meta_mean_anomaly": 73.9109,
        "meta_ephemeris_type": 0,
        "meta_classification_type": "U",
        "meta_norad_cat_id": 66352,
        "meta_element_set_no": 999,
        "meta_rev_at_epoch": 567,
        "meta_bstar": -0.034236801,
        "meta_mean_motion_dot": -0.0209874,
        "meta_mean_motion_ddot": 0,
        "tle_line1": "1 66352U 25254E   25339.25002315 -.02098740  00000+0 -34237-1 0  9991",
        "tle_line2": "2 66352  53.1594 312.4282 0001529  89.1620  73.9109 15.55250596  5676"
      },
      "geometry": {
        "type": "Point",
        "coordinates": [
          -110.9342452570901,
          -49.33470150117583
        ]
      }
    },
    {
      "type": "Feature",
      "properties": {
        "norad_id": 66353,
        "name": "STARLINK-35869",
        "group": "last-30-days",
        "lat": -48.555735233768296,
        "lon": -108.27499990187327,
        "alt_km": 413.9510563441827,
        "timestamp": "2025-12-05T18:53:12.094972+00:00",
        "meta_object_name": "STARLINK-35869",
        "meta_object_id": "2025-254F",
        "meta_epoch": "2025-12-05T06:00:02.000160",
        "meta_mean_motion": 15.55248154,
        "meta_eccentricity": 0.00013653,
        "meta_inclination": 53.1594,
        "meta_ra_of_asc_node": 312.4238,
        "meta_arg_of_pericenter": 82.5449,
        "meta_mean_anomaly": 82.4432,
        "meta_ephemeris_type": 0,
        "meta_classification_type": "U",
        "meta_norad_cat_id": 66353,
        "meta_element_set_no": 999,
        "meta_rev_at_epoch": 571,
        "meta_bstar": -0.034103991,
        "meta_mean_motion_dot": -0.02091214,
        "meta_mean_motion_ddot": 0,
        "tle_line1": "1 66353U 25254F   25339.25002315 -.02091214  00000+0 -34104-1 0  9994",
        "tle_line2": "2 66353  53.1594 312.4238 0001365  82.5449  82.4432 15.55248154  5718"
      },
      "geometry": {
        "type": "Point",
        "coordinates": [
          -108.27499990187327,
          -48.555735233768296
        ]
      }
    },
    {
      "type": "Feature",
      "properties": {
        "norad_id": 66354,
        "name": "STARLINK-35895",
        "group": "last-30-days",
        "lat": 38.110133545936996,
        "lon": -13.659231233977348,
        "alt_km": 412.9253438787782,
        "timestamp": "2025-12-05T18:53:12.094982+00:00",
        "meta_object_name": "STARLINK-35895",
        "meta_object_id": "2025-254G",
        "meta_epoch": "2025-12-05T06:00:02.000160",
        "meta_mean_motion": 15.49323344,
        "meta_eccentricity": 0.00013587,
        "meta_inclination": 53.16,
        "meta_ra_of_asc_node": 312.8886,
        "meta_arg_of_pericenter": 67.0472,
        "meta_mean_anomaly": 227.0847,
        "meta_ephemeris_type": 0,
        "meta_classification_type": "U",
        "meta_norad_cat_id": 66354,
        "meta_element_set_no": 999,
        "meta_rev_at_epoch": 571,
        "meta_bstar": -0.00022335608,
        "meta_mean_motion_dot": -0.00012856,
        "meta_mean_motion_ddot": 0,
        "tle_line1": "1 66354U 25254G   25339.25002315 -.00012856  00000+0 -22336-3 0  9994",
        "tle_line2": "2 66354  53.1600 312.8886 0001358  67.0472 227.0847 15.49323344  5711"
      },
      "geometry": {
        "type": "Point",
        "coordinates": [
          -13.659231233977348,
          38.110133545936996
        ]
      }
    },
    {
      "type": "Feature",
      "properties": {
        "norad_id": 66355,
        "name": "STARLINK-35861",
        "group": "last-30-days",
        "lat": -46.82602866868356,
        "lon": -103.21706007835105,
        "alt_km": 413.96048386418624,
        "timestamp": "2025-12-05T18:53:12.094993+00:00",
        "meta_object_name": "STARLINK-35861",
        "meta_object_id": "2025-254H",
        "meta_epoch": "2025-12-05T06:00:02.000160",
        "meta_mean_motion": 15.55249324,
        "meta_eccentricity": 0.00015176,
        "meta_inclination": 53.1593,
        "meta_ra_of_asc_node": 312.4153,
        "meta_arg_of_pericenter": 80.3155,
        "meta_mean_anomaly": 88.5102,
        "meta_ephemeris_type": 0,
        "meta_classification_type": "U",
        "meta_norad_cat_id": 66355,
        "meta_element_set_no": 999,
        "meta_rev_at_epoch": 571,
        "meta_bstar": -0.034221021,
        "meta_mean_motion_dot": -0.02097783,
        "meta_mean_motion_ddot": 0,
        "tle_line1": "1 66355U 25254H   25339.25002315 -.02097783  00000+0 -34221-1 0  9993",
        "tle_line2": "2 66355  53.1593 312.4153 0001517  80.3155  88.5102 15.55249324  5715"
      },
      "geometry": {
        "type": "Point",
        "coordinates": [
          -103.21706007835105,
          -46.82602866868356
        ]
      }
    },
    {
      "type": "Feature",
      "properties": {
        "norad_id": 66356,
        "name": "STARLINK-35851",
        "group": "last-30-days",
        "lat": -45.880359938032484,
        "lon": -100.81212641655834,
        "alt_km": 414.02368465110703,
        "timestamp": "2025-12-05T18:53:12.095005+00:00",
        "meta_object_name": "STARLINK-35851",
        "meta_object_id": "2025-254J",
        "meta_epoch": "2025-12-05T06:00:02.000160",
        "meta_mean_motion": 15.55248984,
        "meta_eccentricity": 0.00016484,
        "meta_inclination": 53.1594,
        "meta_ra_of_asc_node": 312.4107,
        "meta_arg_of_pericenter": 85.1848,
        "meta_mean_anomaly": 85.5558,
        "meta_ephemeris_type": 0,
        "meta_classification_type": "U",
        "meta_norad_cat_id": 66356,
        "meta_element_set_no": 999,
        "meta_rev_at_epoch": 571,
        "meta_bstar": -0.034187691,
        "meta_mean_motion_dot": -0.02096029,
        "meta_mean_motion_ddot": 0,
        "tle_line1": "1 66356U 25254J   25339.25002315 -.02096029  00000+0 -34188-1 0  9998",
        "tle_line2": "2 66356  53.1594 312.4107 0001648  85.1848  85.5558 15.55248984  5716"
      },
      "geometry": {
        "type": "Point",
        "coordinates": [
          -100.81212641655834,
          -45.880359938032484
        ]
      }
    },
    {
      "type": "Feature",
      "properties": {
        "norad_id": 66357,
        "name": "STARLINK-35817",
        "group": "last-30-days",
        "lat": -44.884342788645455,
        "lon": -98.48616437260152,
        "alt_km": 414.0263092361283,
        "timestamp": "2025-12-05T18:53:12.095015+00:00",
        "meta_object_name": "STARLINK-35817",
        "meta_object_id": "2025-254K",
        "meta_epoch": "2025-12-05T06:00:02.000160",
        "meta_mean_motion": 15.55249566,
        "meta_eccentricity": 0.00016124,
        "meta_inclination": 53.1595,
        "meta_ra_of_asc_node": 312.4066,
        "meta_arg_of_pericenter": 94.4018,
        "meta_mean_anomaly": 78.2581,
        "meta_ephemeris_type": 0,
        "meta_classification_type": "U",
        "meta_norad_cat_id": 66357,
        "meta_element_set_no": 999,
        "meta_rev_at_epoch": 571,
        "meta_bstar": -0.034238201,
        "meta_mean_motion_dot": -0.02098801,
        "meta_mean_motion_ddot": 0,
        "tle_line1": "1 66357U 25254K   25339.25002315 -.02098801  00000+0 -34238-1 0  9995",
        "tle_line2": "2 66357  53.1595 312.4066 0001612  94.4018  78.2581 15.55249566  5717"
      },
      "geometry": {
        "type": "Point",
        "coordinates": [
          -98.48616437260152,
          -44.884342788645455
        ]
      }
    },
    {
      "type": "Feature",
      "properties": {
        "norad_id": 66358,
        "name": "STARLINK-35807",
        "group": "last-30-days",
        "lat": -43.84406387998896,
        "lon": -96.24520870351876,
        "alt_km": 413.79562778438867,
        "timestamp": "2025-12-05T18:53:12.095026+00:00",
        "meta_object_name": "STARLINK-35807",
        "meta_object_id": "2025-254L",
        "meta_epoch": "2025-12-05T06:00:02.000160",
        "meta_mean_motion": 15.55242012,
        "meta_eccentricity": 0.00014554,
        "meta_inclination": 53.1594,
        "meta_ra_of_asc_node": 312.4021,
        "meta_arg_of_pericenter": 84.7834,
        "meta_mean_anomaly": 89.8004,
        "meta_ephemeris_type": 0,
        "meta_classification_type": "U",
        "meta_norad_cat_id": 66358,
        "meta_element_set_no": 999,
        "meta_rev_at_epoch": 571,
        "meta_bstar": -0.03412151,
        "meta_mean_motion_dot": -0.02091804,
        "meta_mean_motion_ddot": 0,
        "tle_line1": "1 66358U 25254L   25339.25002315 -.02091804  00000+0 -34122-1 0  9994",
        "tle_line2": "2 66358  53.1594 312.4021 0001455  84.7834  89.8004 15.55242012  5718"
      },
      "geometry": {
        "type": "Point",
        "coordinates": [
          -96.24520870351876,
          -43.84406387998896
        ]
      }
    }
  ]
}